start=new Date('2021-09-25T00:00:00.000Z').valueOf();
sats=[{"TLE_LINE1":"1 46794U 20074BH  21267.82764218 -.00000588  00000-0 -20575-4 0  9995","PERIOD":"95.592","CENTER_NAME":"EARTH","EPOCH":"2021-09-24T19:51:48.284352","REV_AT_EPOCH":"5147","ECCENTRICITY":"0.00019520","PERIAPSIS":"545.878","SEMIMAJOR_AXIS":"6925.365","TLE_LINE2":"2 46794  53.0551  64.8948 0001952 106.1222 253.9982 15.06394642 51476","MEAN_MOTION_DDOT":"0.0000000000000","INCLINATION":"53.0551","OBJECT_ID":"2020-074BH","GP_ID":"185429338","BSTAR":"-0.00002057500000","RCS_SIZE":"LARGE","SITE":"AFETR","TIME_SYSTEM":"UTC","FILE":"3126800","MEAN_ANOMALY":"253.9982","COUNTRY_CODE":"US","EPHEMERIS_TYPE":"0","NORAD_CAT_ID":"46794","APOAPSIS":"548.582","OBJECT_TYPE":"PAYLOAD","CLASSIFICATION_TYPE":"U","ARG_OF_PERICENTER":"106.1222","REF_FRAME":"TEME","RA_OF_ASC_NODE":"64.8948","MEAN_MOTION_DOT":"-0.00000588","LAUNCH_DATE":"2020-10-24","OBJECT_NAME":"STARLINK-1942","MEAN_MOTION":"15.06394642","ELEMENT_SET_NO":"999","DECAY_DATE":null,"MEAN_ELEMENT_THEORY":"SGP4"},{"APOAPSIS":"445.026","ARG_OF_PERICENTER":"344.2933","OBJECT_TYPE":"PAYLOAD","CLASSIFICATION_TYPE":"U","FILE":"3126800","MEAN_ANOMALY":"15.7831","COUNTRY_CODE":"US","NORAD_CAT_ID":"46795","EPHEMERIS_TYPE":"0","OBJECT_NAME":"STARLINK-1943","DECAY_DATE":null,"ELEMENT_SET_NO":"999","MEAN_ELEMENT_THEORY":"SGP4","MEAN_MOTION":"15.42154002","RA_OF_ASC_NODE":"23.2364","REF_FRAME":"TEME","LAUNCH_DATE":"2020-10-24","MEAN_MOTION_DOT":"-0.00008765","REV_AT_EPOCH":"5204","TLE_LINE1":"1 46795U 20074BJ  21267.62142065 -.00008765  00000-0 -19188-3 0  9996","PERIOD":"93.376","EPOCH":"2021-09-24T14:54:50.744160","CENTER_NAME":"EARTH","MEAN_MOTION_DDOT":"0.0000000000000","INCLINATION":"53.0521","OBJECT_ID":"2020-074BJ","SITE":"AFETR","TIME_SYSTEM":"UTC","RCS_SIZE":"LARGE","GP_ID":"185430087","BSTAR":"-0.00019188000000","SEMIMAJOR_AXIS":"6817.890","PERIAPSIS":"434.485","ECCENTRICITY":"0.00077300","TLE_LINE2":"2 46795  53.0521  23.2364 0007730 344.2933  15.7831 15.42154002 52044"},{"REF_FRAME":"TEME","RA_OF_ASC_NODE":"54.6939","MEAN_MOTION_DOT":"-0.00000301","LAUNCH_DATE":"2020-10-24","OBJECT_NAME":"STARLINK-1944","MEAN_MOTION":"15.06400489","MEAN_ELEMENT_THEORY":"SGP4","ELEMENT_SET_NO":"999","DECAY_DATE":null,"FILE":"3126800","MEAN_ANOMALY":"255.3034","COUNTRY_CODE":"US","EPHEMERIS_TYPE":"0","NORAD_CAT_ID":"46796","APOAPSIS":"548.447","OBJECT_TYPE":"PAYLOAD","CLASSIFICATION_TYPE":"U","ARG_OF_PERICENTER":"104.8152","ECCENTRICITY":"0.00017830","SEMIMAJOR_AXIS":"6925.347","PERIAPSIS":"545.977","TLE_LINE2":"2 46796  53.0559  54.6939 0001783 104.8152 255.3034 15.06400489 51619","OBJECT_ID":"2020-074BK","INCLINATION":"53.0559","MEAN_MOTION_DDOT":"0.0000000000000","BSTAR":"-0.00000128140000","GP_ID":"185429840","SITE":"AFETR","TIME_SYSTEM":"UTC","RCS_SIZE":"LARGE","PERIOD":"95.592","TLE_LINE1":"1 46796U 20074BK  21267.86910068 -.00000301  00000-0 -12814-5 0  9998","CENTER_NAME":"EARTH","EPOCH":"2021-09-24T20:51:30.298752","REV_AT_EPOCH":"5161"},{"SITE":"AFETR","RCS_SIZE":"LARGE","TIME_SYSTEM":"UTC","BSTAR":"0.01071900000000","GP_ID":"185428589","OBJECT_ID":"2020-074BL","MEAN_MOTION_DDOT":"0.0000000000000","INCLINATION":"53.0582","TLE_LINE2":"2 46797  53.0582  33.6105 0001658  99.5068 260.6116 15.22472162 51924","PERIAPSIS":"497.248","SEMIMAJOR_AXIS":"6876.524","ECCENTRICITY":"0.00016580","REV_AT_EPOCH":"5192","EPOCH":"2021-09-24T22:13:45.570432","CENTER_NAME":"EARTH","PERIOD":"94.583","TLE_LINE1":"1 46797U 20074BL  21267.92622188  .00260154  00000-0  10719-1 0  9999","MEAN_ELEMENT_THEORY":"SGP4","DECAY_DATE":null,"ELEMENT_SET_NO":"999","MEAN_MOTION":"15.22472162","OBJECT_NAME":"STARLINK-1947","LAUNCH_DATE":"2020-10-24","MEAN_MOTION_DOT":"0.00260154","RA_OF_ASC_NODE":"33.6105","REF_FRAME":"TEME","ARG_OF_PERICENTER":"99.5068","OBJECT_TYPE":"PAYLOAD","CLASSIFICATION_TYPE":"U","APOAPSIS":"499.529","EPHEMERIS_TYPE":"0","NORAD_CAT_ID":"46797","COUNTRY_CODE":"US","FILE":"3126800","MEAN_ANOMALY":"260.6116"},{"SITE":"AFETR","TIME_SYSTEM":"UTC","RCS_SIZE":"LARGE","GP_ID":"185428839","BSTAR":"0.00012005000000","INCLINATION":"53.0546","MEAN_MOTION_DDOT":"0.0000000000000","OBJECT_ID":"2020-074BM","TLE_LINE2":"2 46798  53.0546  80.1604 0002112  98.1650 261.9578 15.06404474 51259","SEMIMAJOR_AXIS":"6925.335","PERIAPSIS":"545.737","ECCENTRICITY":"0.00021120","REV_AT_EPOCH":"5125","CENTER_NAME":"EARTH","EPOCH":"2021-09-24T18:26:10.410720","TLE_LINE1":"1 46798U 20074BM  21267.76817605  .00001507  00000-0  12005-3 0  9999","PERIOD":"95.592","ELEMENT_SET_NO":"999","DECAY_DATE":null,"MEAN_ELEMENT_THEORY":"SGP4","MEAN_MOTION":"15.06404474","OBJECT_NAME":"STARLINK-1948","LAUNCH_DATE":"2020-10-24","MEAN_MOTION_DOT":"0.00001507","RA_OF_ASC_NODE":"80.1604","REF_FRAME":"TEME","ARG_OF_PERICENTER":"98.1650","CLASSIFICATION_TYPE":"U","OBJECT_TYPE":"PAYLOAD","APOAPSIS":"548.662","EPHEMERIS_TYPE":"0","NORAD_CAT_ID":"46798","FILE":"3126800","COUNTRY_CODE":"US","MEAN_ANOMALY":"261.9578"},{"MEAN_MOTION":"15.06404694","ELEMENT_SET_NO":"999","DECAY_DATE":null,"MEAN_ELEMENT_THEORY":"SGP4","OBJECT_NAME":"STARLINK-1777","MEAN_MOTION_DOT":"0.00000501","LAUNCH_DATE":"2020-11-25","REF_FRAME":"TEME","RA_OF_ASC_NODE":"44.7641","OBJECT_TYPE":"PAYLOAD","CLASSIFICATION_TYPE":"U","ARG_OF_PERICENTER":"95.2875","APOAPSIS":"548.271","EPHEMERIS_TYPE":"0","NORAD_CAT_ID":"47122","COUNTRY_CODE":"US","FILE":"3126800","MEAN_ANOMALY":"264.8291","GP_ID":"185428877","BSTAR":"0.00005252800000","SITE":"AFETR","TIME_SYSTEM":"UTC","RCS_SIZE":"LARGE","INCLINATION":"53.0549","MEAN_MOTION_DDOT":"0.0000000000000","OBJECT_ID":"2020-088A","TLE_LINE2":"2 47122  53.0549  44.7641 0001548  95.2875 264.8291 15.06404694 46634","ECCENTRICITY":"0.00015480","PERIAPSIS":"546.127","SEMIMAJOR_AXIS":"6925.334","REV_AT_EPOCH":"4663","CENTER_NAME":"EARTH","EPOCH":"2021-09-24T20:31:36.337152","TLE_LINE1":"1 47122U 20088A   21267.85528168  .00000501  00000-0  52528-4 0  9997","PERIOD":"95.592"},{"ECCENTRICITY":"0.00013320","SEMIMAJOR_AXIS":"6925.333","PERIAPSIS":"546.275","TLE_LINE2":"2 47124  53.0565  49.8391 0001332  98.9362 261.1778 15.06405164 46569","OBJECT_ID":"2020-088C","MEAN_MOTION_DDOT":"0.0000000000000","INCLINATION":"53.0565","BSTAR":"0.00000398160000","GP_ID":"185429626","SITE":"AFETR","TIME_SYSTEM":"UTC","RCS_SIZE":"LARGE","PERIOD":"95.592","TLE_LINE1":"1 47124U 20088C   21267.84097089 -.00000222  00000-0  39816-5 0  9998","EPOCH":"2021-09-24T20:10:59.884896","CENTER_NAME":"EARTH","REV_AT_EPOCH":"4656","REF_FRAME":"TEME","RA_OF_ASC_NODE":"49.8391","MEAN_MOTION_DOT":"-0.00000222","LAUNCH_DATE":"2020-11-25","OBJECT_NAME":"STARLINK-1785","MEAN_MOTION":"15.06405164","MEAN_ELEMENT_THEORY":"SGP4","DECAY_DATE":null,"ELEMENT_SET_NO":"999","FILE":"3126800","MEAN_ANOMALY":"261.1778","COUNTRY_CODE":"US","EPHEMERIS_TYPE":"0","NORAD_CAT_ID":"47124","APOAPSIS":"548.120","CLASSIFICATION_TYPE":"U","OBJECT_TYPE":"PAYLOAD","ARG_OF_PERICENTER":"98.9362"},{"REV_AT_EPOCH":"4662","EPOCH":"2021-09-24T17:57:41.726304","CENTER_NAME":"EARTH","PERIOD":"95.592","TLE_LINE1":"1 47126U 20088E   21267.74839961 -.00000254  00000-0  18073-5 0  9999","BSTAR":"0.00000180730000","GP_ID":"185430378","TIME_SYSTEM":"UTC","SITE":"AFETR","RCS_SIZE":"LARGE","OBJECT_ID":"2020-088E","INCLINATION":"53.0568","MEAN_MOTION_DDOT":"0.0000000000000","TLE_LINE2":"2 47126  53.0568  45.2485 0001346  95.6985 264.4158 15.06395681 46625","ECCENTRICITY":"0.00013460","SEMIMAJOR_AXIS":"6925.362","PERIAPSIS":"546.295","OBJECT_TYPE":"PAYLOAD","CLASSIFICATION_TYPE":"U","ARG_OF_PERICENTER":"95.6985","APOAPSIS":"548.159","EPHEMERIS_TYPE":"0","NORAD_CAT_ID":"47126","COUNTRY_CODE":"US","FILE":"3126800","MEAN_ANOMALY":"264.4158","MEAN_MOTION":"15.06395681","MEAN_ELEMENT_THEORY":"SGP4","ELEMENT_SET_NO":"999","DECAY_DATE":null,"OBJECT_NAME":"STARLINK-1812","MEAN_MOTION_DOT":"-0.00000254","LAUNCH_DATE":"2020-11-25","REF_FRAME":"TEME","RA_OF_ASC_NODE":"45.2485"},{"FILE":"3126800","COUNTRY_CODE":"US","MEAN_ANOMALY":"76.1202","NORAD_CAT_ID":"47127","EPHEMERIS_TYPE":"0","APOAPSIS":"304.991","CLASSIFICATION_TYPE":"U","OBJECT_TYPE":"PAYLOAD","ARG_OF_PERICENTER":"283.8742","REF_FRAME":"TEME","RA_OF_ASC_NODE":"334.3110","MEAN_MOTION_DOT":"0.00028608","LAUNCH_DATE":"2020-11-25","OBJECT_NAME":"STARLINK-1836","MEAN_MOTION":"15.91001502","ELEMENT_SET_NO":"999","DECAY_DATE":null,"MEAN_ELEMENT_THEORY":"SGP4","TLE_LINE1":"1 47127U 20088F   21267.65092093  .00028608  11410-4  99057-4 0  9990","PERIOD":"90.509","CENTER_NAME":"EARTH","EPOCH":"2021-09-24T15:37:19.568352","REV_AT_EPOCH":"4792","ECCENTRICITY":"0.00082510","PERIAPSIS":"293.971","SEMIMAJOR_AXIS":"6677.616","TLE_LINE2":"2 47127  53.0520 334.3110 0008251 283.8742  76.1202 15.91001502 47927","MEAN_MOTION_DDOT":"0.0000114100000","INCLINATION":"53.0520","OBJECT_ID":"2020-088F","GP_ID":"185429127","BSTAR":"0.00009905700000","TIME_SYSTEM":"UTC","SITE":"AFETR","RCS_SIZE":"LARGE"},{"PERIAPSIS":"542.581","SEMIMAJOR_AXIS":"6925.374","ECCENTRICITY":"0.00067250","TLE_LINE2":"2 47128  53.0551  24.8293 0006725  54.3575 305.8039 15.06391830 46914","OBJECT_ID":"2020-088G","INCLINATION":"53.0551","MEAN_MOTION_DDOT":"0.0000000000000","SITE":"AFETR","RCS_SIZE":"LARGE","TIME_SYSTEM":"UTC","BSTAR":"-0.00008846700000","GP_ID":"185429377","PERIOD":"95.593","TLE_LINE1":"1 47128U 20088G   21267.83870946 -.00001602  00000-0 -88467-4 0  9991","CENTER_NAME":"EARTH","EPOCH":"2021-09-24T20:07:44.497344","REV_AT_EPOCH":"4691","RA_OF_ASC_NODE":"24.8293","REF_FRAME":"TEME","LAUNCH_DATE":"2020-11-25","MEAN_MOTION_DOT":"-0.00001602","OBJECT_NAME":"STARLINK-1837","MEAN_ELEMENT_THEORY":"SGP4","DECAY_DATE":null,"ELEMENT_SET_NO":"999","MEAN_MOTION":"15.06391830","MEAN_ANOMALY":"305.8039","FILE":"3126800","COUNTRY_CODE":"US","EPHEMERIS_TYPE":"0","NORAD_CAT_ID":"47128","APOAPSIS":"551.896","ARG_OF_PERICENTER":"54.3575","OBJECT_TYPE":"PAYLOAD","CLASSIFICATION_TYPE":"U"}];
